{
"type": "FeatureCollection",
"name": "ghmc_boundary",
"crs": { "type": "name", "properties": { "name": "urn:ogc:def:crs:OGC:1.3:CRS84" } },
"features": [
{ "type": "Feature", "properties": { "id": null, "Name": "Greater Hyderabad Municipal Corporation", "description": null, "timestamp": null, "begin": null, "end": null, "altitudeMode": null, "tessellate": -1, "extrude": 0, "visibility": -1, "drawOrder": null, "icon": null, "_id": "relation/7868535", "admin_level": "8", "boundary": "administrative", "type": "boundary", "_timestamp": "2018-01-03T13:15:26Z", "_version": "2", "_changeset": "55128738", "_user": "adivik2000", "_uid": "250196" }, "geometry": { "type": "MultiPolygon", "coordinates": [ [ [ [ 78.2807423, 17.4845165, 0.0 ], [ 78.2807852, 17.4812214, 0.0 ], [ 78.2837678, 17.4812623, 0.0 ], [ 78.2837571, 17.4802697, 0.0 ], [ 78.2839502, 17.4812009, 0.0 ], [ 78.2839609, 17.4803208, 0.0 ], [ 78.2876623, 17.480198, 0.0 ], [ 78.2878394, 17.4794996, 0.0 ], [ 78.2889847, 17.4794996, 0.0 ], [ 78.2888077, 17.4804667, 0.0 ], [ 78.2839609, 17.4838513, 0.0 ], [ 78.2807423, 17.4845165, 0.0 ] ] ], [ [ [ 78.2827762, 17.5118613, 0.0 ], [ 78.2817293, 17.508, 0.0 ], [ 78.2850338, 17.5069359, 0.0 ], [ 78.2850982, 17.5026999, 0.0 ], [ 78.2909132, 17.5026282, 0.0 ], [ 78.2890892, 17.5080103, 0.0 ], [ 78.2880163, 17.5105478, 0.0 ], [ 78.2891321, 17.5112845, 0.0 ], [ 78.2913637, 17.5103841, 0.0 ], [ 78.2931447, 17.5072327, 0.0 ], [ 78.2942176, 17.5074169, 0.0 ], [ 78.2952261, 17.5089926, 0.0 ], [ 78.3001264, 17.5081119, 0.0 ], [ 78.2988525, 17.5057388, 0.0 ], [ 78.3026935, 17.5038561, 0.0 ], [ 78.3037234, 17.5040403, 0.0 ], [ 78.3054829, 17.5023417, 0.0 ], [ 78.3068066, 17.5023417, 0.0 ], [ 78.3067922, 17.5057052, 0.0 ], [ 78.3107615, 17.503406, 0.0 ], [ 78.3127946, 17.4995791, 0.0 ], [ 78.3132559, 17.4986889, 0.0 ], [ 78.3138192, 17.4977885, 0.0 ], [ 78.3149296, 17.4960899, 0.0 ], [ 78.3149242, 17.4941559, 0.0 ], [ 78.3152461, 17.4941559, 0.0 ], [ 78.3160159, 17.4932784, 0.0 ], [ 78.315171, 17.4929536, 0.0 ], [ 78.3143878, 17.4913163, 0.0 ], [ 78.3138835, 17.4893465, 0.0 ], [ 78.3134866, 17.487566, 0.0 ], [ 78.3130628, 17.4861487, 0.0 ], [ 78.3128402, 17.485724, 0.0 ], [ 78.3122528, 17.4857036, 0.0 ], [ 78.3092862, 17.4854324, 0.0 ], [ 78.3034229, 17.484885, 0.0 ], [ 78.2950652, 17.4841482, 0.0 ], [ 78.2953334, 17.4787859, 0.0 ], [ 78.2964706, 17.4783766, 0.0 ], [ 78.2977365, 17.4780224, 0.0 ], [ 78.2950221, 17.4765846, 0.0 ], [ 78.2965134, 17.4729516, 0.0 ], [ 78.2899473, 17.463045, 0.0 ], [ 78.287072, 17.4562084, 0.0 ], [ 78.2834242, 17.4557171, 0.0 ], [ 78.2832526, 17.453752, 0.0 ], [ 78.2718371, 17.4415926, 0.0 ], [ 78.2717512, 17.4405281, 0.0 ], [ 78.2729529, 17.4336496, 0.0 ], [ 78.2787786, 17.4274874, 0.0 ], [ 78.2829092, 17.4237818, 0.0 ], [ 78.2893894, 17.4273032, 0.0 ], [ 78.294196, 17.4325851, 0.0 ], [ 78.3165978, 17.4187044, 0.0 ], [ 78.327627, 17.4157153, 0.0 ], [ 78.3352659, 17.4155924, 0.0 ], [ 78.3421753, 17.4120299, 0.0 ], [ 78.3436774, 17.4149372, 0.0 ], [ 78.3483337, 17.4125213, 0.0 ], [ 78.3500288, 17.4136678, 0.0 ], [ 78.3518098, 17.4134836, 0.0 ], [ 78.3536337, 17.4164114, 0.0 ], [ 78.3657037, 17.4121835, 0.0 ], [ 78.3658324, 17.4121835, 0.0 ], [ 78.3659826, 17.4130536, 0.0 ], [ 78.3678494, 17.4136806, 0.0 ], [ 78.3687185, 17.4128284, 0.0 ], [ 78.3719371, 17.4121732, 0.0 ], [ 78.373997, 17.4153365, 0.0 ], [ 78.3743833, 17.4156999, 0.0 ], [ 78.3747266, 17.4156845, 0.0 ], [ 78.374909, 17.4151573, 0.0 ], [ 78.3752684, 17.4151471, 0.0 ], [ 78.3753703, 17.4155208, 0.0 ], [ 78.3756064, 17.415403, 0.0 ], [ 78.3756547, 17.4151881, 0.0 ], [ 78.3760302, 17.4149065, 0.0 ], [ 78.3761428, 17.4149475, 0.0 ], [ 78.3763896, 17.4146097, 0.0 ], [ 78.3772586, 17.4158483, 0.0 ], [ 78.3779882, 17.4174044, 0.0 ], [ 78.3814214, 17.4178241, 0.0 ], [ 78.3867107, 17.4143947, 0.0 ], [ 78.3882235, 17.4136269, 0.0 ], [ 78.387966, 17.4110471, 0.0 ], [ 78.3882986, 17.4096958, 0.0 ], [ 78.3895109, 17.4096548, 0.0 ], [ 78.390441, 17.4095949, 0.0 ], [ 78.3898974, 17.4078133, 0.0 ], [ 78.3869255, 17.4078952, 0.0 ], [ 78.38725, 17.4070365, 0.0 ], [ 78.3880467, 17.4065464, 0.0 ], [ 78.3893288, 17.4060012, 0.0 ], [ 78.3906323, 17.4043069, 0.0 ], [ 78.3909488, 17.4030426, 0.0 ], [ 78.3905733, 17.4031142, 0.0 ], [ 78.3903963, 17.401855, 0.0 ], [ 78.3916462, 17.4023054, 0.0 ], [ 78.391099, 17.3962036, 0.0 ], [ 78.3923436, 17.394197, 0.0 ], [ 78.3910561, 17.3932141, 0.0 ], [ 78.3910346, 17.3923541, 0.0 ], [ 78.3920512, 17.3922824, 0.0 ], [ 78.3928103, 17.392866, 0.0 ], [ 78.393792, 17.3925588, 0.0 ], [ 78.3929873, 17.3900709, 0.0 ], [ 78.3895541, 17.3882894, 0.0 ], [ 78.3875156, 17.385996, 0.0 ], [ 78.3846832, 17.3854533, 0.0 ], [ 78.3828271, 17.3884635, 0.0 ], [ 78.3833743, 17.3905931, 0.0 ], [ 78.3835566, 17.3924462, 0.0 ], [ 78.382752, 17.3939308, 0.0 ], [ 78.381486, 17.3874396, 0.0 ], [ 78.3797479, 17.3876853, 0.0 ], [ 78.3800912, 17.3852895, 0.0 ], [ 78.3797425, 17.3842298, 0.0 ], [ 78.3790398, 17.3839687, 0.0 ], [ 78.3788628, 17.3835233, 0.0 ], [ 78.3796406, 17.3820233, 0.0 ], [ 78.3780742, 17.3806103, 0.0 ], [ 78.3778918, 17.3783987, 0.0 ], [ 78.3756173, 17.3772519, 0.0 ], [ 78.3753491, 17.3763714, 0.0 ], [ 78.3815289, 17.3740061, 0.0 ], [ 78.3889533, 17.3710776, 0.0 ], [ 78.3984375, 17.3711186, 0.0 ], [ 78.4014631, 17.3731869, 0.0 ], [ 78.4031368, 17.3732074, 0.0 ], [ 78.4076965, 17.3723473, 0.0 ], [ 78.4101534, 17.3720811, 0.0 ], [ 78.4076858, 17.3678214, 0.0 ], [ 78.4074283, 17.3660192, 0.0 ], [ 78.4075463, 17.3629677, 0.0 ], [ 78.4096384, 17.3600493, 0.0 ], [ 78.4096599, 17.359271, 0.0 ], [ 78.4092093, 17.3589229, 0.0 ], [ 78.4093165, 17.3586669, 0.0 ], [ 78.4088659, 17.3583801, 0.0 ], [ 78.408941, 17.3581446, 0.0 ], [ 78.4070957, 17.3573356, 0.0 ], [ 78.404274, 17.3581241, 0.0 ], [ 78.401506, 17.3573254, 0.0 ], [ 78.4012806, 17.3569875, 0.0 ], [ 78.4007442, 17.3548063, 0.0 ], [ 78.3981693, 17.3539768, 0.0 ], [ 78.39818, 17.3508944, 0.0 ], [ 78.400476, 17.3496655, 0.0 ], [ 78.4004653, 17.3479451, 0.0 ], [ 78.3966351, 17.3321224, 0.0 ], [ 78.3950901, 17.3310982, 0.0 ], [ 78.3889961, 17.3312211, 0.0 ], [ 78.3861208, 17.3297872, 0.0 ], [ 78.3825159, 17.3294595, 0.0 ], [ 78.3823872, 17.3285787, 0.0 ], [ 78.3813572, 17.3282919, 0.0 ], [ 78.3751559, 17.3279539, 0.0 ], [ 78.3759499, 17.3242361, 0.0 ], [ 78.3755851, 17.3211429, 0.0 ], [ 78.3759069, 17.3129899, 0.0 ], [ 78.3954334, 17.3041604, 0.0 ], [ 78.3964849, 17.3033, 0.0 ], [ 78.3963347, 17.3002884, 0.0 ], [ 78.408308, 17.3013538, 0.0 ], [ 78.4225666, 17.2942601, 0.0 ], [ 78.4296262, 17.2916377, 0.0 ], [ 78.4324586, 17.2987878, 0.0 ], [ 78.4331882, 17.3023525, 0.0 ], [ 78.4398615, 17.3024754, 0.0 ], [ 78.4402048, 17.3012872, 0.0 ], [ 78.4484231, 17.3006316, 0.0 ], [ 78.4511697, 17.3022091, 0.0 ], [ 78.4514057, 17.3041758, 0.0 ], [ 78.4541738, 17.3040529, 0.0 ], [ 78.4565449, 17.3022142, 0.0 ], [ 78.4591627, 17.304058, 0.0 ], [ 78.4594846, 17.3088518, 0.0 ], [ 78.4623384, 17.3084625, 0.0 ], [ 78.4615445, 17.3145314, 0.0 ], [ 78.4631324, 17.3143214, 0.0 ], [ 78.4650421, 17.3150589, 0.0 ], [ 78.4659272, 17.3157861, 0.0 ], [ 78.4662698, 17.3165227, 0.0 ], [ 78.4675098, 17.3140244, 0.0 ], [ 78.4681964, 17.3116993, 0.0 ], [ 78.4690332, 17.3109208, 0.0 ], [ 78.470428, 17.3099375, 0.0 ], [ 78.4709215, 17.308483, 0.0 ], [ 78.4770155, 17.3117608, 0.0 ], [ 78.4786677, 17.3143214, 0.0 ], [ 78.4831631, 17.3131845, 0.0 ], [ 78.4832597, 17.3125187, 0.0 ], [ 78.4897613, 17.3142805, 0.0 ], [ 78.4898365, 17.3155096, 0.0 ], [ 78.4897722, 17.3173328, 0.0 ], [ 78.4926582, 17.3180293, 0.0 ], [ 78.4937096, 17.3179268, 0.0 ], [ 78.4949434, 17.3174557, 0.0 ], [ 78.4952116, 17.3158169, 0.0 ], [ 78.4962416, 17.3140142, 0.0 ], [ 78.4978295, 17.3133996, 0.0 ], [ 78.5005761, 17.3136659, 0.0 ], [ 78.5038805, 17.3137069, 0.0 ], [ 78.5060692, 17.3137888, 0.0 ], [ 78.5056328, 17.3162476, 0.0 ], [ 78.5081721, 17.3168411, 0.0 ], [ 78.5090626, 17.3168309, 0.0 ], [ 78.5097814, 17.3188794, 0.0 ], [ 78.5096956, 17.3222389, 0.0 ], [ 78.508215, 17.323765, 0.0 ], [ 78.5072708, 17.3330236, 0.0 ], [ 78.5071367, 17.3349286, 0.0 ], [ 78.5066754, 17.3357171, 0.0 ], [ 78.5050124, 17.3364238, 0.0 ], [ 78.5055113, 17.3402131, 0.0 ], [ 78.5047174, 17.3421999, 0.0 ], [ 78.506949, 17.3435517, 0.0 ], [ 78.511777, 17.3428144, 0.0 ], [ 78.5159612, 17.3423842, 0.0 ], [ 78.5189892, 17.3413439, 0.0 ], [ 78.519963, 17.3405511, 0.0 ], [ 78.5216366, 17.3386053, 0.0 ], [ 78.5179996, 17.3397114, 0.0 ], [ 78.5175543, 17.3382161, 0.0 ], [ 78.5193085, 17.336936, 0.0 ], [ 78.5208964, 17.337069, 0.0 ], [ 78.52257, 17.3374275, 0.0 ], [ 78.523788, 17.3396952, 0.0 ], [ 78.5280633, 17.3382263, 0.0 ], [ 78.5337496, 17.3371407, 0.0 ], [ 78.5361209, 17.3374909, 0.0 ], [ 78.5361904, 17.3369768, 0.0 ], [ 78.5363033, 17.3366332, 0.0 ], [ 78.5373977, 17.3348255, 0.0 ], [ 78.5345867, 17.3343544, 0.0 ], [ 78.5352519, 17.3328182, 0.0 ], [ 78.5354128, 17.3301553, 0.0 ], [ 78.5343614, 17.3298993, 0.0 ], [ 78.5350588, 17.3268267, 0.0 ], [ 78.533664, 17.3265399, 0.0 ], [ 78.5334065, 17.3259254, 0.0 ], [ 78.5333207, 17.3245018, 0.0 ], [ 78.535091, 17.3247783, 0.0 ], [ 78.5353699, 17.3259971, 0.0 ], [ 78.5365823, 17.3261712, 0.0 ], [ 78.537108, 17.3242355, 0.0 ], [ 78.5397687, 17.322566, 0.0 ], [ 78.5423115, 17.32189, 0.0 ], [ 78.549478, 17.3169435, 0.0 ], [ 78.5527182, 17.3143829, 0.0 ], [ 78.5579753, 17.3126007, 0.0 ], [ 78.5581899, 17.3104292, 0.0 ], [ 78.5655713, 17.3100195, 0.0 ], [ 78.5709572, 17.3042219, 0.0 ], [ 78.5756779, 17.3023576, 0.0 ], [ 78.593123, 17.3025676, 0.0 ], [ 78.6018133, 17.3042219, 0.0 ], [ 78.605783, 17.3066803, 0.0 ], [ 78.6131644, 17.3087903, 0.0 ], [ 78.6171985, 17.311474, 0.0 ], [ 78.6208034, 17.3115149, 0.0 ], [ 78.6214471, 17.3156735, 0.0 ], [ 78.6199665, 17.3199139, 0.0 ], [ 78.6188078, 17.3200777, 0.0 ], [ 78.618958, 17.3235601, 0.0 ], [ 78.6166835, 17.3244614, 0.0 ], [ 78.6168551, 17.3300945, 0.0 ], [ 78.6198378, 17.3336586, 0.0 ], [ 78.620739, 17.3359322, 0.0 ], [ 78.6223912, 17.3389227, 0.0 ], [ 78.6212303, 17.3385126, 0.0 ], [ 78.620397, 17.34093, 0.0 ], [ 78.6104192, 17.3465831, 0.0 ], [ 78.6025013, 17.3464192, 0.0 ], [ 78.5982741, 17.3450264, 0.0 ], [ 78.5859145, 17.3467469, 0.0 ], [ 78.5858273, 17.350454, 0.0 ], [ 78.5858113, 17.3543352, 0.0 ], [ 78.585189, 17.3567929, 0.0 ], [ 78.5798836, 17.3601005, 0.0 ], [ 78.5773086, 17.3655072, 0.0 ], [ 78.5778451, 17.3661421, 0.0 ], [ 78.5808706, 17.366695, 0.0 ], [ 78.5796422, 17.3683538, 0.0 ], [ 78.5799909, 17.3695826, 0.0 ], [ 78.5810637, 17.3697772, 0.0 ], [ 78.5816646, 17.3713438, 0.0 ], [ 78.5843253, 17.3731152, 0.0 ], [ 78.5855484, 17.3762177, 0.0 ], [ 78.5811067, 17.3782041, 0.0 ], [ 78.5809565, 17.3821769, 0.0 ], [ 78.5876298, 17.3837332, 0.0 ], [ 78.5879409, 17.3855557, 0.0 ], [ 78.5875654, 17.3867843, 0.0 ], [ 78.581939, 17.3894447, 0.0 ], [ 78.5802591, 17.3953538, 0.0 ], [ 78.5819006, 17.403923, 0.0 ], [ 78.5776842, 17.4049672, 0.0 ], [ 78.5688973, 17.4099119, 0.0 ], [ 78.5670519, 17.4116829, 0.0 ], [ 78.5666549, 17.4163818, 0.0 ], [ 78.5660219, 17.4178866, 0.0 ], [ 78.5651636, 17.4191048, 0.0 ], [ 78.563726, 17.4222884, 0.0 ], [ 78.5625028, 17.4238854, 0.0 ], [ 78.5619235, 17.4250933, 0.0 ], [ 78.5649919, 17.4260146, 0.0 ], [ 78.5662579, 17.4266902, 0.0 ], [ 78.5676312, 17.4272532, 0.0 ], [ 78.5696911, 17.4268744, 0.0 ], [ 78.5733712, 17.4274527, 0.0 ], [ 78.5759407, 17.4299146, 0.0 ], [ 78.5773623, 17.4298275, 0.0 ], [ 78.5783601, 17.431972, 0.0 ], [ 78.5775876, 17.4331799, 0.0 ], [ 78.5805702, 17.4365168, 0.0 ], [ 78.5840034, 17.4401812, 0.0 ], [ 78.5951507, 17.4453399, 0.0 ], [ 78.6084652, 17.4454525, 0.0 ], [ 78.6106753, 17.4488096, 0.0 ], [ 78.6108685, 17.4517266, 0.0 ], [ 78.6107665, 17.4545668, 0.0 ], [ 78.6109543, 17.4535587, 0.0 ], [ 78.6109489, 17.454618, 0.0 ], [ 78.6120164, 17.4546231, 0.0 ], [ 78.6121023, 17.4584713, 0.0 ], [ 78.6131537, 17.4592082, 0.0 ], [ 78.6146557, 17.4587784, 0.0 ], [ 78.6158896, 17.4608048, 0.0 ], [ 78.6163294, 17.4629233, 0.0 ], [ 78.6151144, 17.46398, 0.0 ], [ 78.6151841, 17.4643306, 0.0 ], [ 78.6148381, 17.4658248, 0.0 ], [ 78.6159754, 17.4668789, 0.0 ], [ 78.6160666, 17.4702408, 0.0 ], [ 78.6181963, 17.4743855, 0.0 ], [ 78.6180031, 17.4763913, 0.0 ], [ 78.6048496, 17.4782742, 0.0 ], [ 78.6035407, 17.4761252, 0.0 ], [ 78.5984981, 17.4783254, 0.0 ], [ 78.5937345, 17.4771178, 0.0 ], [ 78.5895717, 17.4787961, 0.0 ], [ 78.5882735, 17.4814466, 0.0 ], [ 78.5884666, 17.4846291, 0.0 ], [ 78.5874152, 17.4865836, 0.0 ], [ 78.5881877, 17.4877502, 0.0 ], [ 78.5881126, 17.4912243, 0.0 ], [ 78.5882199, 17.4939411, 0.0 ], [ 78.5883727, 17.496773, 0.0 ], [ 78.5861924, 17.5004182, 0.0 ], [ 78.5837784, 17.5019019, 0.0 ], [ 78.5824695, 17.5019991, 0.0 ], [ 78.5821906, 17.502787, 0.0 ], [ 78.5799912, 17.5033242, 0.0 ], [ 78.5784677, 17.5040199, 0.0 ], [ 78.5776147, 17.5055189, 0.0 ], [ 78.5758552, 17.5055189, 0.0 ], [ 78.5754958, 17.5071049, 0.0 ], [ 78.5743371, 17.507903, 0.0 ], [ 78.5710862, 17.5070179, 0.0 ], [ 78.5708073, 17.5056929, 0.0 ], [ 78.5690531, 17.5056161, 0.0 ], [ 78.5686119, 17.5047285, 0.0 ], [ 78.5664836, 17.5044497, 0.0 ], [ 78.5637477, 17.5052068, 0.0 ], [ 78.5636619, 17.5066598, 0.0 ], [ 78.562353, 17.5072123, 0.0 ], [ 78.5563448, 17.507949, 0.0 ], [ 78.5540961, 17.5073314, 0.0 ], [ 78.5533407, 17.5074681, 0.0 ], [ 78.5513344, 17.5070179, 0.0 ], [ 78.5510662, 17.5077239, 0.0 ], [ 78.5480729, 17.5081741, 0.0 ], [ 78.5475954, 17.5152288, 0.0 ], [ 78.5457608, 17.5155715, 0.0 ], [ 78.5447094, 17.5167226, 0.0 ], [ 78.5449669, 17.5183084, 0.0 ], [ 78.5459432, 17.5189274, 0.0 ], [ 78.5455862, 17.5198891, 0.0 ], [ 78.5473591, 17.5232551, 0.0 ], [ 78.5473108, 17.526529, 0.0 ], [ 78.5486627, 17.5269587, 0.0 ], [ 78.5497141, 17.5290867, 0.0 ], [ 78.5480618, 17.5295982, 0.0 ], [ 78.5473564, 17.5308387, 0.0 ], [ 78.5471821, 17.5338336, 0.0 ], [ 78.5522461, 17.539051, 0.0 ], [ 78.5497785, 17.5411584, 0.0 ], [ 78.5483193, 17.5404321, 0.0 ], [ 78.5459322, 17.5359564, 0.0 ], [ 78.5442531, 17.5353375, 0.0 ], [ 78.5365874, 17.5380843, 0.0 ], [ 78.5330629, 17.5373631, 0.0 ], [ 78.5322609, 17.5334704, 0.0 ], [ 78.5322797, 17.5322275, 0.0 ], [ 78.5334974, 17.5248358, 0.0 ], [ 78.5351014, 17.5240327, 0.0 ], [ 78.5359865, 17.5230658, 0.0 ], [ 78.5381699, 17.5237053, 0.0 ], [ 78.5368609, 17.5172801, 0.0 ], [ 78.5387921, 17.5171881, 0.0 ], [ 78.5387814, 17.5156841, 0.0 ], [ 78.539747, 17.515592, 0.0 ], [ 78.5403803, 17.5103842, 0.0 ], [ 78.533031, 17.5111822, 0.0 ], [ 78.5317221, 17.5119701, 0.0 ], [ 78.5304239, 17.510466, 0.0 ], [ 78.5312822, 17.5093098, 0.0 ], [ 78.5305741, 17.5071202, 0.0 ], [ 78.5308638, 17.5016256, 0.0 ], [ 78.5356274, 17.4982899, 0.0 ], [ 78.5365126, 17.4982643, 0.0 ], [ 78.5360458, 17.4965299, 0.0 ], [ 78.5359815, 17.4951076, 0.0 ], [ 78.5341361, 17.4945448, 0.0 ], [ 78.5339749, 17.493368, 0.0 ], [ 78.5346401, 17.4924215, 0.0 ], [ 78.5329878, 17.4911475, 0.0 ], [ 78.5307831, 17.4895154, 0.0 ], [ 78.5284066, 17.4872693, 0.0 ], [ 78.5276127, 17.4865427, 0.0 ], [ 78.5276771, 17.4854478, 0.0 ], [ 78.5272157, 17.4850385, 0.0 ], [ 78.5257888, 17.4852226, 0.0 ], [ 78.5256922, 17.4840561, 0.0 ], [ 78.5250109, 17.4827411, 0.0 ], [ 78.5242411, 17.4820017, 0.0 ], [ 78.5236859, 17.4810168, 0.0 ], [ 78.5232836, 17.4793129, 0.0 ], [ 78.5235974, 17.4782563, 0.0 ], [ 78.5249412, 17.4772816, 0.0 ], [ 78.5258746, 17.4766625, 0.0 ], [ 78.5267651, 17.4767392, 0.0 ], [ 78.5284442, 17.4771946, 0.0 ], [ 78.5290074, 17.476422, 0.0 ], [ 78.5311478, 17.4701487, 0.0 ], [ 78.5323226, 17.4654717, 0.0 ], [ 78.533138, 17.462624, 0.0 ], [ 78.5331205, 17.4622415, 0.0 ], [ 78.5321188, 17.4605899, 0.0 ], [ 78.5298443, 17.4591775, 0.0 ], [ 78.5272479, 17.4566291, 0.0 ], [ 78.5252631, 17.4551911, 0.0 ], [ 78.5248929, 17.4536329, 0.0 ], [ 78.5245228, 17.4519518, 0.0 ], [ 78.5238898, 17.4500276, 0.0 ], [ 78.5235143, 17.4493316, 0.0 ], [ 78.5229081, 17.4490757, 0.0 ], [ 78.5225621, 17.449132, 0.0 ], [ 78.5223019, 17.4485947, 0.0 ], [ 78.5219935, 17.44741, 0.0 ], [ 78.5218607, 17.4470837, 0.0 ], [ 78.5215992, 17.4465118, 0.0 ], [ 78.5199845, 17.4468854, 0.0 ], [ 78.519617, 17.44567, 0.0 ], [ 78.5184073, 17.4461178, 0.0 ], [ 78.5181713, 17.4456674, 0.0 ], [ 78.5120559, 17.447346, 0.0 ], [ 78.5107684, 17.4476121, 0.0 ], [ 78.5087085, 17.4480829, 0.0 ], [ 78.5068671, 17.4506507, 0.0 ], [ 78.505404, 17.4510306, 0.0 ], [ 78.5042667, 17.4492702, 0.0 ], [ 78.5028934, 17.4478577, 0.0 ], [ 78.5020137, 17.4464248, 0.0 ], [ 78.5017347, 17.4461792, 0.0 ], [ 78.5013592, 17.4432928, 0.0 ], [ 78.5014451, 17.4428015, 0.0 ], [ 78.4984088, 17.4429755, 0.0 ], [ 78.477509, 17.4433337, 0.0 ], [ 78.4750843, 17.4434975, 0.0 ], [ 78.472724, 17.4440093, 0.0 ], [ 78.4707499, 17.4440093, 0.0 ], [ 78.4699935, 17.4464197, 0.0 ], [ 78.4685773, 17.4466807, 0.0 ], [ 78.4680355, 17.450437, 0.0 ], [ 78.468132, 17.4509897, 0.0 ], [ 78.4659004, 17.4543263, 0.0 ], [ 78.4607506, 17.4574786, 0.0 ], [ 78.4596348, 17.4577652, 0.0 ], [ 78.4598816, 17.4580364, 0.0 ], [ 78.4625906, 17.4620995, 0.0 ], [ 78.462691, 17.4622501, 0.0 ], [ 78.4633792, 17.4620227, 0.0 ], [ 78.4635508, 17.4753474, 0.0 ], [ 78.463288, 17.4789599, 0.0 ], [ 78.4630305, 17.4801111, 0.0 ], [ 78.4649617, 17.4817024, 0.0 ], [ 78.4644306, 17.4861078, 0.0 ], [ 78.4603697, 17.485765, 0.0 ], [ 78.4649563, 17.4892954, 0.0 ], [ 78.4676921, 17.4931327, 0.0 ], [ 78.4702565, 17.4958239, 0.0 ], [ 78.4741403, 17.4958955, 0.0 ], [ 78.4789146, 17.4945653, 0.0 ], [ 78.4817792, 17.5007098, 0.0 ], [ 78.4897657, 17.5045263, 0.0 ], [ 78.4919047, 17.5047642, 0.0 ], [ 78.4926611, 17.5025233, 0.0 ], [ 78.4932807, 17.4978344, 0.0 ], [ 78.4935462, 17.4969544, 0.0 ], [ 78.4930433, 17.4948951, 0.0 ], [ 78.49224, 17.4928767, 0.0 ], [ 78.491729, 17.4921911, 0.0 ], [ 78.4907098, 17.48989, 0.0 ], [ 78.4906776, 17.4861218, 0.0 ], [ 78.4884829, 17.4869091, 0.0 ], [ 78.4868032, 17.4877987, 0.0 ], [ 78.4843369, 17.4902085, 0.0 ], [ 78.4798425, 17.4893771, 0.0 ], [ 78.4796061, 17.4868784, 0.0 ], [ 78.4791743, 17.4867217, 0.0 ], [ 78.4795263, 17.4855398, 0.0 ], [ 78.4780069, 17.4856536, 0.0 ], [ 78.4765303, 17.4860949, 0.0 ], [ 78.4754293, 17.4829955, 0.0 ], [ 78.4751195, 17.4786451, 0.0 ], [ 78.4757256, 17.4763208, 0.0 ], [ 78.4767865, 17.4764091, 0.0 ], [ 78.4771392, 17.4745555, 0.0 ], [ 78.481546, 17.4727927, 0.0 ], [ 78.4819899, 17.4718218, 0.0 ], [ 78.4849001, 17.4709378, 0.0 ], [ 78.4895739, 17.4708496, 0.0 ], [ 78.4899279, 17.470059, 0.0 ], [ 78.4909861, 17.4700564, 0.0 ], [ 78.4911644, 17.4693516, 0.0 ], [ 78.4939888, 17.4696138, 0.0 ], [ 78.4945145, 17.473408, 0.0 ], [ 78.4952563, 17.474733, 0.0 ], [ 78.4956199, 17.4741535, 0.0 ], [ 78.4956632, 17.473849, 0.0 ], [ 78.4998085, 17.4716446, 0.0 ], [ 78.5002491, 17.4717335, 0.0 ], [ 78.4985737, 17.4737601, 0.0 ], [ 78.4983072, 17.476317, 0.0 ], [ 78.4975159, 17.4766802, 0.0 ], [ 78.4976923, 17.4779076, 0.0 ], [ 78.4976024, 17.4784359, 0.0 ], [ 78.4977801, 17.478262, 0.0 ], [ 78.4981335, 17.4794951, 0.0 ], [ 78.4989267, 17.4798494, 0.0 ], [ 78.4997341, 17.4799179, 0.0 ], [ 78.5018504, 17.4818481, 0.0 ], [ 78.4998585, 17.4831286, 0.0 ], [ 78.5017119, 17.4846763, 0.0 ], [ 78.5038657, 17.4854054, 0.0 ], [ 78.5048209, 17.4884306, 0.0 ], [ 78.5071014, 17.4900013, 0.0 ], [ 78.5087852, 17.4895607, 0.0 ], [ 78.5091922, 17.4906559, 0.0 ], [ 78.5094091, 17.4916564, 0.0 ], [ 78.5126221, 17.4913214, 0.0 ], [ 78.5125299, 17.4931875, 0.0 ], [ 78.5131673, 17.4977142, 0.0 ], [ 78.5140521, 17.5010595, 0.0 ], [ 78.5140868, 17.5023433, 0.0 ], [ 78.5150012, 17.503709, 0.0 ], [ 78.5144685, 17.5079611, 0.0 ], [ 78.5151679, 17.5104273, 0.0 ], [ 78.5159746, 17.5130162, 0.0 ], [ 78.5161925, 17.5148676, 0.0 ], [ 78.5161664, 17.5158513, 0.0 ], [ 78.5157241, 17.5176733, 0.0 ], [ 78.5151102, 17.5194543, 0.0 ], [ 78.5138342, 17.5233382, 0.0 ], [ 78.5136297, 17.524119, 0.0 ], [ 78.5134268, 17.5254263, 0.0 ], [ 78.5136317, 17.5273884, 0.0 ], [ 78.5163917, 17.5267752, 0.0 ], [ 78.5221259, 17.5360386, 0.0 ], [ 78.5219639, 17.5367893, 0.0 ], [ 78.521244, 17.5370081, 0.0 ], [ 78.5191216, 17.5368127, 0.0 ], [ 78.519098, 17.5378592, 0.0 ], [ 78.5171141, 17.537941, 0.0 ], [ 78.5172889, 17.5389183, 0.0 ], [ 78.5161442, 17.5406332, 0.0 ], [ 78.5178775, 17.5418787, 0.0 ], [ 78.51798, 17.5422241, 0.0 ], [ 78.5172718, 17.5425618, 0.0 ], [ 78.5178083, 17.5435392, 0.0 ], [ 78.515598, 17.544859, 0.0 ], [ 78.5140108, 17.544065, 0.0 ], [ 78.5065133, 17.5462698, 0.0 ], [ 78.5064232, 17.5368337, 0.0 ], [ 78.5005492, 17.5274191, 0.0 ], [ 78.4930445, 17.5272554, 0.0 ], [ 78.4909953, 17.5316239, 0.0 ], [ 78.4888603, 17.5316137, 0.0 ], [ 78.4840967, 17.5247489, 0.0 ], [ 78.4786142, 17.5247591, 0.0 ], [ 78.4651066, 17.5290253, 0.0 ], [ 78.4610726, 17.5292299, 0.0 ], [ 78.4585191, 17.5303348, 0.0 ], [ 78.4604074, 17.5320331, 0.0 ], [ 78.459077, 17.5328311, 0.0 ], [ 78.4565021, 17.5322377, 0.0 ], [ 78.4443356, 17.5346112, 0.0 ], [ 78.4436168, 17.5452504, 0.0 ], [ 78.4430052, 17.5499662, 0.0 ], [ 78.4422005, 17.552452, 0.0 ], [ 78.4397115, 17.5534749, 0.0 ], [ 78.4337355, 17.5536846, 0.0 ], [ 78.4280009, 17.5559785, 0.0 ], [ 78.4262441, 17.5580038, 0.0 ], [ 78.421223, 17.5606583, 0.0 ], [ 78.4195359, 17.5608321, 0.0 ], [ 78.4164513, 17.5591469, 0.0 ], [ 78.4150405, 17.5552855, 0.0 ], [ 78.4136297, 17.5503243, 0.0 ], [ 78.4083725, 17.5458846, 0.0 ], [ 78.4058513, 17.5458284, 0.0 ], [ 78.4023215, 17.5453067, 0.0 ], [ 78.4006639, 17.5437262, 0.0 ], [ 78.395337, 17.5401559, 0.0 ], [ 78.393619, 17.5406789, 0.0 ], [ 78.3943043, 17.5328541, 0.0 ], [ 78.3949239, 17.526419, 0.0 ], [ 78.3951895, 17.5250993, 0.0 ], [ 78.3966003, 17.5226285, 0.0 ], [ 78.3964263, 17.5198952, 0.0 ], [ 78.3976598, 17.5197178, 0.0 ], [ 78.3977496, 17.5190105, 0.0 ], [ 78.3979267, 17.5195374, 0.0 ], [ 78.3986321, 17.5173377, 0.0 ], [ 78.4007497, 17.517426, 0.0 ], [ 78.4082706, 17.514001, 0.0 ], [ 78.4067096, 17.514088, 0.0 ], [ 78.4048964, 17.5137606, 0.0 ], [ 78.4040005, 17.5137299, 0.0 ], [ 78.4032763, 17.5133718, 0.0 ], [ 78.4014524, 17.5081741, 0.0 ], [ 78.4002186, 17.5070384, 0.0 ], [ 78.3991541, 17.507642, 0.0 ], [ 78.3963675, 17.5084675, 0.0 ], [ 78.3928971, 17.5086041, 0.0 ], [ 78.3893696, 17.5116918, 0.0 ], [ 78.3881352, 17.5116931, 0.0 ], [ 78.3869, 17.5086041, 0.0 ], [ 78.3855767, 17.5075461, 0.0 ], [ 78.3792259, 17.5094863, 0.0 ], [ 78.3791368, 17.507546, 0.0 ], [ 78.376756, 17.507634, 0.0 ], [ 78.3764912, 17.506575, 0.0 ], [ 78.375256, 17.5069565, 0.0 ], [ 78.3732636, 17.5074284, 0.0 ], [ 78.3732269, 17.5129268, 0.0 ], [ 78.3721679, 17.5146021, 0.0 ], [ 78.3709348, 17.514691, 0.0 ], [ 78.3709348, 17.5167193, 0.0 ], [ 78.3706672, 17.5190987, 0.0 ], [ 78.3686449, 17.5188615, 0.0 ], [ 78.3660217, 17.5189107, 0.0 ], [ 78.3644371, 17.5200617, 0.0 ], [ 78.3624664, 17.5211309, 0.0 ], [ 78.3602603, 17.5195419, 0.0 ], [ 78.35135, 17.5213074, 0.0 ], [ 78.350206, 17.5206935, 0.0 ], [ 78.3421768, 17.5208649, 0.0 ], [ 78.3415592, 17.5191908, 0.0 ], [ 78.3415532, 17.5179963, 0.0 ], [ 78.3369827, 17.5182214, 0.0 ], [ 78.3367252, 17.5172597, 0.0 ], [ 78.3338727, 17.5170742, 0.0 ], [ 78.3371115, 17.515991, 0.0 ], [ 78.3351374, 17.5125941, 0.0 ], [ 78.3341503, 17.5122463, 0.0 ], [ 78.3347726, 17.5113868, 0.0 ], [ 78.3346438, 17.5071099, 0.0 ], [ 78.3313554, 17.5054217, 0.0 ], [ 78.3275574, 17.5079899, 0.0 ], [ 78.3241939, 17.5085015, 0.0 ], [ 78.3225846, 17.5084401, 0.0 ], [ 78.3224559, 17.5071099, 0.0 ], [ 78.3225846, 17.5061686, 0.0 ], [ 78.3208895, 17.505923, 0.0 ], [ 78.3165979, 17.5062095, 0.0 ], [ 78.316319, 17.5083992, 0.0 ], [ 78.3081436, 17.5079899, 0.0 ], [ 78.3066201, 17.5082764, 0.0 ], [ 78.3059228, 17.510732, 0.0 ], [ 78.3015668, 17.5104762, 0.0 ], [ 78.2996035, 17.5129829, 0.0 ], [ 78.2938528, 17.5132285, 0.0 ], [ 78.2909131, 17.5143233, 0.0 ], [ 78.2898617, 17.5160114, 0.0 ], [ 78.290484, 17.5177098, 0.0 ], [ 78.2896042, 17.5195617, 0.0 ], [ 78.2884562, 17.5197254, 0.0 ], [ 78.2884562, 17.5203597, 0.0 ], [ 78.2879305, 17.5219558, 0.0 ], [ 78.2874584, 17.5222934, 0.0 ], [ 78.2874799, 17.5231528, 0.0 ], [ 78.2873298, 17.52436, 0.0 ], [ 78.2869435, 17.5272246, 0.0 ], [ 78.2884456, 17.5303347, 0.0 ], [ 78.2854415, 17.5339359, 0.0 ], [ 78.2853127, 17.5363502, 0.0 ], [ 78.2803775, 17.5389691, 0.0 ], [ 78.2801629, 17.5487488, 0.0 ], [ 78.2804633, 17.5479304, 0.0 ], [ 78.2811499, 17.5512448, 0.0 ], [ 78.279605, 17.5541499, 0.0 ], [ 78.2778455, 17.5541499, 0.0 ], [ 78.2733823, 17.5519404, 0.0 ], [ 78.2685328, 17.5512857, 0.0 ], [ 78.2661296, 17.5499354, 0.0 ], [ 78.2654, 17.5482987, 0.0 ], [ 78.2641555, 17.5475622, 0.0 ], [ 78.2621385, 17.5489943, 0.0 ], [ 78.2626534, 17.5515721, 0.0 ], [ 78.2621814, 17.5523496, 0.0 ], [ 78.2587911, 17.5521041, 0.0 ], [ 78.2573319, 17.5500582, 0.0 ], [ 78.2535554, 17.5495263, 0.0 ], [ 78.2517529, 17.5499763, 0.0 ], [ 78.2508088, 17.5515312, 0.0 ], [ 78.2492638, 17.5514085, 0.0 ], [ 78.2490493, 17.5492807, 0.0 ], [ 78.2514525, 17.5480941, 0.0 ], [ 78.2519675, 17.5455162, 0.0 ], [ 78.251195, 17.5440022, 0.0 ], [ 78.251238, 17.5432657, 0.0 ], [ 78.2505942, 17.5431839, 0.0 ], [ 78.2494784, 17.5406059, 0.0 ], [ 78.2492638, 17.5412606, 0.0 ], [ 78.2491351, 17.5394602, 0.0 ], [ 78.246646, 17.5389691, 0.0 ], [ 78.2387067, 17.5409742, 0.0 ], [ 78.2392646, 17.5347543, 0.0 ], [ 78.2422686, 17.5294344, 0.0 ], [ 78.2436849, 17.5300483, 0.0 ], [ 78.2448436, 17.5294754, 0.0 ], [ 78.243599, 17.5262425, 0.0 ], [ 78.2447148, 17.5256695, 0.0 ], [ 78.2448436, 17.5271837, 0.0 ], [ 78.2450581, 17.5262015, 0.0 ], [ 78.245659, 17.5271837, 0.0 ], [ 78.246131, 17.5269791, 0.0 ], [ 78.2464744, 17.5260788, 0.0 ], [ 78.2495213, 17.5265289, 0.0 ], [ 78.2519246, 17.5258741, 0.0 ], [ 78.2517529, 17.5234597, 0.0 ], [ 78.2524396, 17.5213725, 0.0 ], [ 78.251195, 17.5198993, 0.0 ], [ 78.2523967, 17.518426, 0.0 ], [ 78.2517959, 17.517321, 0.0 ], [ 78.2517959, 17.5169936, 0.0 ], [ 78.2508088, 17.5169527, 0.0 ], [ 78.2508517, 17.5165025, 0.0 ], [ 78.25171, 17.5165843, 0.0 ], [ 78.2525683, 17.5155612, 0.0 ], [ 78.2521821, 17.5143743, 0.0 ], [ 78.2528258, 17.5127373, 0.0 ], [ 78.2516671, 17.5119597, 0.0 ], [ 78.2517529, 17.5111821, 0.0 ], [ 78.2573748, 17.5074168, 0.0 ], [ 78.2609797, 17.5082763, 0.0 ], [ 78.2612801, 17.5101078, 0.0 ], [ 78.2611943, 17.5106194, 0.0 ], [ 78.2616449, 17.5111616, 0.0 ], [ 78.2616127, 17.5119597, 0.0 ], [ 78.2617951, 17.511796, 0.0 ], [ 78.26172, 17.5129317, 0.0 ], [ 78.2629324, 17.5178735, 0.0 ], [ 78.263147, 17.5177098, 0.0 ], [ 78.2638122, 17.51949, 0.0 ], [ 78.2649709, 17.5197765, 0.0 ], [ 78.2671166, 17.5233369, 0.0 ], [ 78.2691766, 17.5228049, 0.0 ], [ 78.2715798, 17.5202267, 0.0 ], [ 78.2778884, 17.5183032, 0.0 ], [ 78.2799912, 17.5149882, 0.0 ], [ 78.2813645, 17.5153566, 0.0 ], [ 78.2831025, 17.5140879, 0.0 ], [ 78.2827163, 17.5130239, 0.0 ], [ 78.2827762, 17.5118613, 0.0 ] ] ], [ [ [ 78.526529, 17.3320098, 0.0 ], [ 78.5266148, 17.3328906, 0.0 ], [ 78.5273229, 17.3328854, 0.0 ], [ 78.5275858, 17.3320968, 0.0 ], [ 78.5282188, 17.3321071, 0.0 ], [ 78.5283797, 17.333418, 0.0 ], [ 78.526352, 17.3349184, 0.0 ], [ 78.5259979, 17.3321071, 0.0 ], [ 78.526529, 17.3320098, 0.0 ] ] ], [ [ [ 78.5272639, 17.336598, 0.0 ], [ 78.5259228, 17.3371049, 0.0 ], [ 78.525558, 17.3380984, 0.0 ], [ 78.5247748, 17.3369411, 0.0 ], [ 78.526132, 17.3360706, 0.0 ], [ 78.5272639, 17.336598, 0.0 ] ] ], [ [ [ 78.5185038, 17.3335255, 0.0 ], [ 78.5171842, 17.3337713, 0.0 ], [ 78.5170232, 17.3315796, 0.0 ], [ 78.5189544, 17.3317435, 0.0 ], [ 78.5185038, 17.3335255, 0.0 ] ] ], [ [ [ 78.5182463, 17.326725, 0.0 ], [ 78.5181498, 17.3274317, 0.0 ], [ 78.5148989, 17.3289475, 0.0 ], [ 78.514974, 17.330156, 0.0 ], [ 78.5148909, 17.3302456, 0.0 ], [ 78.5156902, 17.3309498, 0.0 ], [ 78.5155909, 17.3312212, 0.0 ], [ 78.5126673, 17.3303506, 0.0 ], [ 78.5127961, 17.3270527, 0.0 ], [ 78.5182463, 17.326725, 0.0 ] ] ] ] } }
]
}
